CSS (TIANHE)            
1 48274U 21035A   24275.03546422  .00077533  00000+0  81360-3 0  9997
2 48274  41.4664 157.6605 0003305  73.2283 286.8919 15.63366566195654
